[
    {
        "Altitude(m)": 707975.9785339629,
        "Argument of Periapsis(deg)": 0.004556048474650827,
        "Eccentricity": 0.0,
        "Inclination(deg)": 45.0,
        "Latitude(deg)": -19.614761063741124,
        "Longitude(deg)": 153.94842022840652,
        "Mean Anomaly(deg)": -28.11401334100772,
        "RAAN(deg)": 274.9956992234167,
        "Satellite Name": "Constellation 1 1230",
        "Satellite Number": 1230,
        "Semi-Major Axis(m)": 7083131.272910544,
        "Time(s)": 76
    },
    {
        "Altitude(m)": 707962.9480697261,
        "Argument of Periapsis(deg)": 0.004615996480896233,
        "Eccentricity": 0.0,
        "Inclination(deg)": 45.0,
        "Latitude(deg)": -19.574430176010996,
        "Longitude(deg)": 153.99251423404678,
        "Mean Anomaly(deg)": -28.053312200757784,
        "RAAN(deg)": 274.99564263425117,
        "Satellite Name": "Constellation 1 1230",
        "Satellite Number": 1230,
        "Semi-Major Axis(m)": 7083131.272910544,
        "Time(s)": 77
    },
    {
        "Altitude(m)": 707949.9262017666,
        "Argument of Periapsis(deg)": 0.004675944487141638,
        "Eccentricity": 0.0,
        "Inclination(deg)": 45.0,
        "Latitude(deg)": -19.53408614583169,
        "Longitude(deg)": 154.0365843838933,
        "Mean Anomaly(deg)": -27.99261106050795,
        "RAAN(deg)": 274.9955860450856,
        "Satellite Name": "Constellation 1 1230",
        "Satellite Number": 1230,
        "Semi-Major Axis(m)": 7083131.272910544,
        "Time(s)": 78
    },
    {
        "Altitude(m)": 707936.9129721208,
        "Argument of Periapsis(deg)": 0.004735892493387044,
        "Eccentricity": 0.0,
        "Inclination(deg)": 45.0,
        "Latitude(deg)": -19.493729008316873,
        "Longitude(deg)": 154.08063073544295,
        "Mean Anomaly(deg)": -27.931909920258015,
        "RAAN(deg)": 274.99552945591995,
        "Satellite Name": "Constellation 1 1230",
        "Satellite Number": 1230,
        "Semi-Major Axis(m)": 7083131.272910544,
        "Time(s)": 79
    },
    {
        "Altitude(m)": 707923.9084227665,
        "Argument of Periapsis(deg)": 0.004795840499632449,
        "Eccentricity": 0.0,
        "Inclination(deg)": 45.0,
        "Latitude(deg)": -19.45335879853409,
        "Longitude(deg)": 154.12465334616377,
        "Mean Anomaly(deg)": -27.871208780008075,
        "RAAN(deg)": 274.9954728667544,
        "Satellite Name": "Constellation 1 1230",
        "Satellite Number": 1230,
        "Semi-Major Axis(m)": 7083131.272910544,
        "Time(s)": 80
    },
    {
        "Altitude(m)": 707910.9125956428,
        "Argument of Periapsis(deg)": 0.004855788505877855,
        "Eccentricity": 0.0,
        "Inclination(deg)": 45.0,
        "Latitude(deg)": -19.412975551504434,
        "Longitude(deg)": 154.16865227349612,
        "Mean Anomaly(deg)": -27.81050763975814,
        "RAAN(deg)": 274.99541627758884,
        "Satellite Name": "Constellation 1 1230",
        "Satellite Number": 1230,
        "Semi-Major Axis(m)": 7083131.272910544,
        "Time(s)": 81
    },
    {
        "Altitude(m)": 707897.9255326301,
        "Argument of Periapsis(deg)": 0.00491573651212326,
        "Eccentricity": 0.0,
        "Inclination(deg)": 45.0,
        "Latitude(deg)": -19.372579302202677,
        "Longitude(deg)": 154.2126274067546,
        "Mean Anomaly(deg)": -27.749806499508352,
        "RAAN(deg)": 274.9953596884233,
        "Satellite Name": "Constellation 1 1230",
        "Satellite Number": 1230,
        "Semi-Major Axis(m)": 7083131.272910544,
        "Time(s)": 82
    },
    {
        "Altitude(m)": 707884.9472755764,
        "Argument of Periapsis(deg)": 0.004975684518368666,
        "Eccentricity": 0.0,
        "Inclination(deg)": 45.0,
        "Latitude(deg)": -19.332170085557777,
        "Longitude(deg)": 154.2565791395172,
        "Mean Anomaly(deg)": -27.689105359258363,
        "RAAN(deg)": 274.99530309925774,
        "Satellite Name": "Constellation 1 1230",
        "Satellite Number": 1230,
        "Semi-Major Axis(m)": 7083131.272910544,
        "Time(s)": 83
    },
    {
        "Altitude(m)": 707871.9778662601,
        "Argument of Periapsis(deg)": 0.005035632524614072,
        "Eccentricity": 0.0,
        "Inclination(deg)": 45.0,
        "Latitude(deg)": -19.291747936452477,
        "Longitude(deg)": 154.300507361042,
        "Mean Anomaly(deg)": -27.628404219008427,
        "RAAN(deg)": 274.9952465100921,
        "Satellite Name": "Constellation 1 1230",
        "Satellite Number": 1230,
        "Semi-Major Axis(m)": 7083131.272910544,
        "Time(s)": 84
    },
    {
        "Altitude(m)": 707859.0173464359,
        "Argument of Periapsis(deg)": 0.0050955805308594785,
        "Eccentricity": 0.0,
        "Inclination(deg)": 45.0,
        "Latitude(deg)": -19.251312889723774,
        "Longitude(deg)": 154.34441212865573,
        "Mean Anomaly(deg)": -27.567703078758644,
        "RAAN(deg)": 274.9951899209266,
        "Satellite Name": "Constellation 1 1230",
        "Satellite Number": 1230,
        "Semi-Major Axis(m)": 7083131.272910544,
        "Time(s)": 85
    },
    {
        "Altitude(m)": 707846.0657577884,
        "Argument of Periapsis(deg)": 0.005155528537104883,
        "Eccentricity": 0.0,
        "Inclination(deg)": 45.0,
        "Latitude(deg)": -19.210864980162526,
        "Longitude(deg)": 154.38829349965695,
        "Mean Anomaly(deg)": -27.507001938508708,
        "RAAN(deg)": 274.995133331761,
        "Satellite Name": "Constellation 1 1230",
        "Satellite Number": 1230,
        "Semi-Major Axis(m)": 7083131.272910544,
        "Time(s)": 86
    },
    {
        "Altitude(m)": 707833.1231419704,
        "Argument of Periapsis(deg)": 0.0052154765433502885,
        "Eccentricity": 0.0,
        "Inclination(deg)": 45.0,
        "Latitude(deg)": -19.17040424251436,
        "Longitude(deg)": 154.43215153131544,
        "Mean Anomaly(deg)": -27.44630079825877,
        "RAAN(deg)": 274.9950767425955,
        "Satellite Name": "Constellation 1 1230",
        "Satellite Number": 1230,
        "Semi-Major Axis(m)": 7083131.272910544,
        "Time(s)": 87
    },
    {
        "Altitude(m)": 707820.1895405662,
        "Argument of Periapsis(deg)": 0.005275424549595694,
        "Eccentricity": 0.0,
        "Inclination(deg)": 45.0,
        "Latitude(deg)": -19.129930711479275,
        "Longitude(deg)": 154.4759862808721,
        "Mean Anomaly(deg)": -27.385599658008882,
        "RAAN(deg)": 274.99502015342983,
        "Satellite Name": "Constellation 1 1230",
        "Satellite Number": 1230,
        "Semi-Major Axis(m)": 7083131.272910544,
        "Time(s)": 88
    },
    {
        "Altitude(m)": 707807.2649951304,
        "Argument of Periapsis(deg)": 0.0053353725558411,
        "Eccentricity": 0.0,
        "Inclination(deg)": 45.0,
        "Latitude(deg)": -19.089444421711526,
        "Longitude(deg)": 154.51979763744276,
        "Mean Anomaly(deg)": -27.324898517758996,
        "RAAN(deg)": 274.99496356426425,
        "Satellite Name": "Constellation 1 1230",
        "Satellite Number": 1230,
        "Semi-Major Axis(m)": 7083131.272910544,
        "Time(s)": 89
    },
    {
        "Altitude(m)": 707794.349547159,
        "Argument of Periapsis(deg)": 0.005395320562086505,
        "Eccentricity": 0.0,
        "Inclination(deg)": 45.0,
        "Latitude(deg)": -19.04894540782077,
        "Longitude(deg)": 154.5635859944052,
        "Mean Anomaly(deg)": -27.264197377509056,
        "RAAN(deg)": 274.99490697509873,
        "Satellite Name": "Constellation 1 1230",
        "Satellite Number": 1230,
        "Semi-Major Axis(m)": 7083131.272910544,
        "Time(s)": 90
    },
    {
        "Altitude(m)": 707781.4432381016,
        "Argument of Periapsis(deg)": 0.00545526856833191,
        "Eccentricity": 0.0,
        "Inclination(deg)": 45.0,
        "Latitude(deg)": -19.00843370437085,
        "Longitude(deg)": 154.60735124081748,
        "Mean Anomaly(deg)": -27.20349623725912,
        "RAAN(deg)": 274.99485038593315,
        "Satellite Name": "Constellation 1 1230",
        "Satellite Number": 1230,
        "Semi-Major Axis(m)": 7083131.272910544,
        "Time(s)": 91
    },
    {
        "Altitude(m)": 707768.5461093546,
        "Argument of Periapsis(deg)": 0.005515216574577317,
        "Eccentricity": 0.0,
        "Inclination(deg)": 45.0,
        "Latitude(deg)": -18.96790934588088,
        "Longitude(deg)": 154.65109343380567,
        "Mean Anomaly(deg)": -27.142795097009337,
        "RAAN(deg)": 274.9947937967676,
        "Satellite Name": "Constellation 1 1230",
        "Satellite Number": 1230,
        "Semi-Major Axis(m)": 7083131.272910544,
        "Time(s)": 92
    },
    {
        "Altitude(m)": 707755.6582022622,
        "Argument of Periapsis(deg)": 0.005575164580822722,
        "Eccentricity": 0.0,
        "Inclination(deg)": 45.0,
        "Latitude(deg)": -18.927372366824592,
        "Longitude(deg)": 154.69481263046737,
        "Mean Anomaly(deg)": -27.0820939567594,
        "RAAN(deg)": 274.99473720760204,
        "Satellite Name": "Constellation 1 1230",
        "Satellite Number": 1230,
        "Semi-Major Axis(m)": 7083131.272910544,
        "Time(s)": 93
    },
    {
        "Altitude(m)": 707742.7795581289,
        "Argument of Periapsis(deg)": 0.005635112587068129,
        "Eccentricity": 0.0,
        "Inclination(deg)": 45.0,
        "Latitude(deg)": -18.886822801631297,
        "Longitude(deg)": 154.73850888787092,
        "Mean Anomaly(deg)": -27.02139281650951,
        "RAAN(deg)": 274.9946806184364,
        "Satellite Name": "Constellation 1 1230",
        "Satellite Number": 1230,
        "Semi-Major Axis(m)": 7083131.272910544,
        "Time(s)": 94
    }
]